{
  "type": "FeatureCollection",
  "features": [
    {
      "type": "Feature",
      "properties": {
        "name": "Quần đảo Hoàng Sa",
        "name_en": "Paracel Islands",
        "belongs_to": "Vietnam",
        "type": "island_group",
        "description": "Quần đảo Hoàng Sa thuộc chủ quyền Việt Nam, nằm ở Biển Đông"
      },
      "geometry": {
        "type": "MultiPolygon",
        "coordinates": [
          [[[111.92,16.84],[112.00,16.84],[112.00,16.76],[111.92,16.76],[111.92,16.84]]],
          [[[112.32,16.98],[112.42,16.98],[112.42,16.90],[112.32,16.90],[112.32,16.98]]],
          [[[111.60,16.55],[111.70,16.55],[111.70,16.47],[111.60,16.47],[111.60,16.55]]],
          [[[112.18,16.45],[112.28,16.45],[112.28,16.37],[112.18,16.37],[112.18,16.45]]],
          [[[111.75,16.10],[111.85,16.10],[111.85,16.02],[111.75,16.02],[111.75,16.10]]],
          [[[112.62,16.68],[112.72,16.68],[112.72,16.60],[112.62,16.60],[112.62,16.68]]],
          [[[111.48,16.83],[111.58,16.83],[111.58,16.75],[111.48,16.75],[111.48,16.83]]]
        ]
      }
    },
    {
      "type": "Feature",
      "properties": {
        "name": "Quần đảo Trường Sa",
        "name_en": "Spratly Islands",
        "belongs_to": "Vietnam",
        "type": "island_group",
        "description": "Quần đảo Trường Sa thuộc chủ quyền Việt Nam, nằm ở Biển Đông"
      },
      "geometry": {
        "type": "MultiPolygon",
        "coordinates": [
          [[[114.35,10.38],[114.45,10.38],[114.45,10.30],[114.35,10.30],[114.35,10.38]]],
          [[[114.17,10.73],[114.27,10.73],[114.27,10.65],[114.17,10.65],[114.17,10.73]]],
          [[[113.85,9.92],[113.95,9.92],[113.95,9.84],[113.85,9.84],[113.85,9.92]]],
          [[[115.82,9.73],[115.92,9.73],[115.92,9.65],[115.82,9.65],[115.82,9.73]]],
          [[[114.48,8.65],[114.58,8.65],[114.58,8.57],[114.48,8.57],[114.48,8.65]]],
          [[[112.20,8.38],[112.30,8.38],[112.30,8.30],[112.20,8.30],[112.20,8.38]]],
          [[[113.68,7.88],[113.78,7.88],[113.78,7.80],[113.68,7.80],[113.68,7.88]]],
          [[[115.52,10.73],[115.62,10.73],[115.62,10.65],[115.52,10.65],[115.52,10.73]]],
          [[[114.68,11.05],[114.78,11.05],[114.78,10.97],[114.68,10.97],[114.68,11.05]]],
          [[[116.72,9.55],[116.82,9.55],[116.82,9.47],[116.72,9.47],[116.72,9.55]]]
        ]
      }
    }
  ]
}
